NOAA 16                 
1 26536U 00055A   24125.55202421  .00000137  00000+0  94623-4 0  9995
2 26536  98.5353 167.1365 0010480   7.8659 352.2677 14.13564016217917
